0 DELTA 1 DEB
1 37637U 78026HY  13284.01334373  .00000216  00000-0  19694-3 0  1804
2 37637 098.9904 357.4993 0076353 346.9050 013.0178 13.92394813553510
0 DELTA 1 DEB
1 37637U 78026HY  13287.03134291  .00000229  00000-0  20685-3 0  1813
2 37637 098.9901 000.4264 0076342 338.5266 021.2740 13.92396953553936
0 DELTA 1 DEB
1 37637U 78026HY  13291.05534146  .00000239  00000-0  21447-3 0  1822
2 37637 098.9890 004.3251 0075857 327.6434 032.0280 13.92399671554499
0 DELTA 1 DEB
1 37637U 78026HY  13293.42661781  .00000249  00000-0  22200-3 0  1831
2 37637 098.9890 006.6254 0075867 321.0652 038.5134 13.92401533554825
0 DELTA 1 DEB
1 37637U 78026HY  13295.43861057  .00000257  00000-0  22848-3 0  1840
2 37637 098.9879 008.5735 0076346 315.3044 044.2069 13.92403190555105
